KUIPER-00152            
1 65772U 25217L   26003.50002314 -.01318409  00000+0 -91052-1 0  9995
2 65772  51.8886 320.8694 0002231 127.5913 105.3914 15.08313978  5893
KUIPER-00153            
1 65773U 25217M   26003.32014063  .00028634  00000+0  16636-2 0  9991
2 65773  51.8794 331.8311 0013560  97.0096 263.2422 15.11807640 15202
KUIPER-00155            
1 65774U 25217N   26003.50002314 -.01120893  00000+0 -42180-1 0  9993
2 65774  51.8704 319.6632 0006994 103.1886 317.0981 15.29559788  4890
KUIPER-00156            
1 65775U 25217P   26003.50002314 -.00988145  00000+0 -38534-1 0  9993
2 65775  51.8756 318.9769 0002266 124.6521 262.3489 15.28097631  5588
KUIPER-00158            
1 65776U 25217Q   26003.31161497  .00007693  00000+0  10359-2 0  9995
2 65776  51.8996 334.6925 0001144  51.0211 309.0854 14.79975442 15167
KUIPER-00163            
1 65777U 25217R   26003.10641453  .00000920  00000+0  14989-3 0  9998
2 65777  51.8990 338.1064 0000532 108.0492 252.0528 14.79873953 15090
KUIPER-00165            
1 65778U 25217S   26003.50002314 -.00346443  00000+0 -34770-1 0  9993
2 65778  51.8947 324.4838 0005868 124.9650 350.0855 14.92835108  5355
KUIPER-00166            
1 65779U 25217T   26003.50002314 -.00522867  00000+0 -16747-1 0  9994
2 65779  51.8726 318.7886 0004960  83.7970  46.1030 15.34002245  3855
