<?xml version="1.0" encoding="UTF-8"?>
<ndm xmlns:xsi="http://www.w3.org/2001/XMLSchema-instance" xsi:noNamespaceSchemaLocation="https://sanaregistry.org/r/ndmxml_unqualified/ndmxml-2.0.0-master-2.0.xsd">
<omm id="CCSDS_OMM_VERS" version="2.0">
<header><CREATION_DATE/><ORIGINATOR/></header><body><segment><metadata><OBJECT_NAME>KUIPER-00152</OBJECT_NAME><OBJECT_ID>2025-217L</OBJECT_ID><CENTER_NAME>EARTH</CENTER_NAME><REF_FRAME>TEME</REF_FRAME><TIME_SYSTEM>UTC</TIME_SYSTEM><MEAN_ELEMENT_THEORY>SGP4</MEAN_ELEMENT_THEORY></metadata><data><meanElements><EPOCH>2026-01-03T12:00:01.999296</EPOCH><MEAN_MOTION>15.08313978</MEAN_MOTION><ECCENTRICITY>.0002231</ECCENTRICITY><INCLINATION>51.8886</INCLINATION><RA_OF_ASC_NODE>320.8694</RA_OF_ASC_NODE><ARG_OF_PERICENTER>127.5913</ARG_OF_PERICENTER><MEAN_ANOMALY>105.3914</MEAN_ANOMALY></meanElements><tleParameters><EPHEMERIS_TYPE>0</EPHEMERIS_TYPE><CLASSIFICATION_TYPE>U</CLASSIFICATION_TYPE><NORAD_CAT_ID>65772</NORAD_CAT_ID><ELEMENT_SET_NO>999</ELEMENT_SET_NO><REV_AT_EPOCH>589</REV_AT_EPOCH><BSTAR>-.91052E-1</BSTAR><MEAN_MOTION_DOT>-.1318409E-1</MEAN_MOTION_DOT><MEAN_MOTION_DDOT>0</MEAN_MOTION_DDOT></tleParameters></data></segment></body></omm>
<omm id="CCSDS_OMM_VERS" version="2.0">
<header><CREATION_DATE/><ORIGINATOR/></header><body><segment><metadata><OBJECT_NAME>KUIPER-00153</OBJECT_NAME><OBJECT_ID>2025-217M</OBJECT_ID><CENTER_NAME>EARTH</CENTER_NAME><REF_FRAME>TEME</REF_FRAME><TIME_SYSTEM>UTC</TIME_SYSTEM><MEAN_ELEMENT_THEORY>SGP4</MEAN_ELEMENT_THEORY></metadata><data><meanElements><EPOCH>2026-01-03T07:41:00.150432</EPOCH><MEAN_MOTION>15.11807640</MEAN_MOTION><ECCENTRICITY>.001356</ECCENTRICITY><INCLINATION>51.8794</INCLINATION><RA_OF_ASC_NODE>331.8311</RA_OF_ASC_NODE><ARG_OF_PERICENTER>97.0096</ARG_OF_PERICENTER><MEAN_ANOMALY>263.2422</MEAN_ANOMALY></meanElements><tleParameters><EPHEMERIS_TYPE>0</EPHEMERIS_TYPE><CLASSIFICATION_TYPE>U</CLASSIFICATION_TYPE><NORAD_CAT_ID>65773</NORAD_CAT_ID><ELEMENT_SET_NO>999</ELEMENT_SET_NO><REV_AT_EPOCH>1520</REV_AT_EPOCH><BSTAR>.16636E-2</BSTAR><MEAN_MOTION_DOT>.28634E-3</MEAN_MOTION_DOT><MEAN_MOTION_DDOT>0</MEAN_MOTION_DDOT></tleParameters></data></segment></body></omm>
<omm id="CCSDS_OMM_VERS" version="2.0">
<header><CREATION_DATE/><ORIGINATOR/></header><body><segment><metadata><OBJECT_NAME>KUIPER-00155</OBJECT_NAME><OBJECT_ID>2025-217N</OBJECT_ID><CENTER_NAME>EARTH</CENTER_NAME><REF_FRAME>TEME</REF_FRAME><TIME_SYSTEM>UTC</TIME_SYSTEM><MEAN_ELEMENT_THEORY>SGP4</MEAN_ELEMENT_THEORY></metadata><data><meanElements><EPOCH>2026-01-03T12:00:01.999296</EPOCH><MEAN_MOTION>15.29559788</MEAN_MOTION><ECCENTRICITY>.0006994</ECCENTRICITY><INCLINATION>51.8704</INCLINATION><RA_OF_ASC_NODE>319.6632</RA_OF_ASC_NODE><ARG_OF_PERICENTER>103.1886</ARG_OF_PERICENTER><MEAN_ANOMALY>317.0981</MEAN_ANOMALY></meanElements><tleParameters><EPHEMERIS_TYPE>0</EPHEMERIS_TYPE><CLASSIFICATION_TYPE>U</CLASSIFICATION_TYPE><NORAD_CAT_ID>65774</NORAD_CAT_ID><ELEMENT_SET_NO>999</ELEMENT_SET_NO><REV_AT_EPOCH>489</REV_AT_EPOCH><BSTAR>-.4218E-1</BSTAR><MEAN_MOTION_DOT>-.1120893E-1</MEAN_MOTION_DOT><MEAN_MOTION_DDOT>0</MEAN_MOTION_DDOT></tleParameters></data></segment></body></omm>
<omm id="CCSDS_OMM_VERS" version="2.0">
<header><CREATION_DATE/><ORIGINATOR/></header><body><segment><metadata><OBJECT_NAME>KUIPER-00156</OBJECT_NAME><OBJECT_ID>2025-217P</OBJECT_ID><CENTER_NAME>EARTH</CENTER_NAME><REF_FRAME>TEME</REF_FRAME><TIME_SYSTEM>UTC</TIME_SYSTEM><MEAN_ELEMENT_THEORY>SGP4</MEAN_ELEMENT_THEORY></metadata><data><meanElements><EPOCH>2026-01-03T12:00:01.999296</EPOCH><MEAN_MOTION>15.28097631</MEAN_MOTION><ECCENTRICITY>.0002266</ECCENTRICITY><INCLINATION>51.8756</INCLINATION><RA_OF_ASC_NODE>318.9769</RA_OF_ASC_NODE><ARG_OF_PERICENTER>124.6521</ARG_OF_PERICENTER><MEAN_ANOMALY>262.3489</MEAN_ANOMALY></meanElements><tleParameters><EPHEMERIS_TYPE>0</EPHEMERIS_TYPE><CLASSIFICATION_TYPE>U</CLASSIFICATION_TYPE><NORAD_CAT_ID>65775</NORAD_CAT_ID><ELEMENT_SET_NO>999</ELEMENT_SET_NO><REV_AT_EPOCH>558</REV_AT_EPOCH><BSTAR>-.38534E-1</BSTAR><MEAN_MOTION_DOT>-.988145E-2</MEAN_MOTION_DOT><MEAN_MOTION_DDOT>0</MEAN_MOTION_DDOT></tleParameters></data></segment></body></omm>
<omm id="CCSDS_OMM_VERS" version="2.0">
<header><CREATION_DATE/><ORIGINATOR/></header><body><segment><metadata><OBJECT_NAME>KUIPER-00158</OBJECT_NAME><OBJECT_ID>2025-217Q</OBJECT_ID><CENTER_NAME>EARTH</CENTER_NAME><REF_FRAME>TEME</REF_FRAME><TIME_SYSTEM>UTC</TIME_SYSTEM><MEAN_ELEMENT_THEORY>SGP4</MEAN_ELEMENT_THEORY></metadata><data><meanElements><EPOCH>2026-01-03T07:28:43.533408</EPOCH><MEAN_MOTION>14.79975442</MEAN_MOTION><ECCENTRICITY>.0001144</ECCENTRICITY><INCLINATION>51.8996</INCLINATION><RA_OF_ASC_NODE>334.6925</RA_OF_ASC_NODE><ARG_OF_PERICENTER>51.0211</ARG_OF_PERICENTER><MEAN_ANOMALY>309.0854</MEAN_ANOMALY></meanElements><tleParameters><EPHEMERIS_TYPE>0</EPHEMERIS_TYPE><CLASSIFICATION_TYPE>U</CLASSIFICATION_TYPE><NORAD_CAT_ID>65776</NORAD_CAT_ID><ELEMENT_SET_NO>999</ELEMENT_SET_NO><REV_AT_EPOCH>1516</REV_AT_EPOCH><BSTAR>.10359E-2</BSTAR><MEAN_MOTION_DOT>.7693E-4</MEAN_MOTION_DOT><MEAN_MOTION_DDOT>0</MEAN_MOTION_DDOT></tleParameters></data></segment></body></omm>
<omm id="CCSDS_OMM_VERS" version="2.0">
<header><CREATION_DATE/><ORIGINATOR/></header><body><segment><metadata><OBJECT_NAME>KUIPER-00163</OBJECT_NAME><OBJECT_ID>2025-217R</OBJECT_ID><CENTER_NAME>EARTH</CENTER_NAME><REF_FRAME>TEME</REF_FRAME><TIME_SYSTEM>UTC</TIME_SYSTEM><MEAN_ELEMENT_THEORY>SGP4</MEAN_ELEMENT_THEORY></metadata><data><meanElements><EPOCH>2026-01-03T02:33:14.215392</EPOCH><MEAN_MOTION>14.79873953</MEAN_MOTION><ECCENTRICITY>.00005327</ECCENTRICITY><INCLINATION>51.8990</INCLINATION><RA_OF_ASC_NODE>338.1064</RA_OF_ASC_NODE><ARG_OF_PERICENTER>108.0492</ARG_OF_PERICENTER><MEAN_ANOMALY>252.0528</MEAN_ANOMALY></meanElements><tleParameters><EPHEMERIS_TYPE>0</EPHEMERIS_TYPE><CLASSIFICATION_TYPE>U</CLASSIFICATION_TYPE><NORAD_CAT_ID>65777</NORAD_CAT_ID><ELEMENT_SET_NO>999</ELEMENT_SET_NO><REV_AT_EPOCH>1509</REV_AT_EPOCH><BSTAR>.1498935E-3</BSTAR><MEAN_MOTION_DOT>.92E-5</MEAN_MOTION_DOT><MEAN_MOTION_DDOT>0</MEAN_MOTION_DDOT></tleParameters></data></segment></body></omm>
<omm id="CCSDS_OMM_VERS" version="2.0">
<header><CREATION_DATE/><ORIGINATOR/></header><body><segment><metadata><OBJECT_NAME>KUIPER-00165</OBJECT_NAME><OBJECT_ID>2025-217S</OBJECT_ID><CENTER_NAME>EARTH</CENTER_NAME><REF_FRAME>TEME</REF_FRAME><TIME_SYSTEM>UTC</TIME_SYSTEM><MEAN_ELEMENT_THEORY>SGP4</MEAN_ELEMENT_THEORY></metadata><data><meanElements><EPOCH>2026-01-03T12:00:01.999296</EPOCH><MEAN_MOTION>14.92835108</MEAN_MOTION><ECCENTRICITY>.0005868</ECCENTRICITY><INCLINATION>51.8947</INCLINATION><RA_OF_ASC_NODE>324.4838</RA_OF_ASC_NODE><ARG_OF_PERICENTER>124.9650</ARG_OF_PERICENTER><MEAN_ANOMALY>350.0855</MEAN_ANOMALY></meanElements><tleParameters><EPHEMERIS_TYPE>0</EPHEMERIS_TYPE><CLASSIFICATION_TYPE>U</CLASSIFICATION_TYPE><NORAD_CAT_ID>65778</NORAD_CAT_ID><ELEMENT_SET_NO>999</ELEMENT_SET_NO><REV_AT_EPOCH>535</REV_AT_EPOCH><BSTAR>-.3477E-1</BSTAR><MEAN_MOTION_DOT>-.346443E-2</MEAN_MOTION_DOT><MEAN_MOTION_DDOT>0</MEAN_MOTION_DDOT></tleParameters></data></segment></body></omm>
<omm id="CCSDS_OMM_VERS" version="2.0">
<header><CREATION_DATE/><ORIGINATOR/></header><body><segment><metadata><OBJECT_NAME>KUIPER-00166</OBJECT_NAME><OBJECT_ID>2025-217T</OBJECT_ID><CENTER_NAME>EARTH</CENTER_NAME><REF_FRAME>TEME</REF_FRAME><TIME_SYSTEM>UTC</TIME_SYSTEM><MEAN_ELEMENT_THEORY>SGP4</MEAN_ELEMENT_THEORY></metadata><data><meanElements><EPOCH>2026-01-03T12:00:01.999296</EPOCH><MEAN_MOTION>15.34002245</MEAN_MOTION><ECCENTRICITY>.000496</ECCENTRICITY><INCLINATION>51.8726</INCLINATION><RA_OF_ASC_NODE>318.7886</RA_OF_ASC_NODE><ARG_OF_PERICENTER>83.7970</ARG_OF_PERICENTER><MEAN_ANOMALY>46.1030</MEAN_ANOMALY></meanElements><tleParameters><EPHEMERIS_TYPE>0</EPHEMERIS_TYPE><CLASSIFICATION_TYPE>U</CLASSIFICATION_TYPE><NORAD_CAT_ID>65779</NORAD_CAT_ID><ELEMENT_SET_NO>999</ELEMENT_SET_NO><REV_AT_EPOCH>385</REV_AT_EPOCH><BSTAR>-.16747E-1</BSTAR><MEAN_MOTION_DOT>-.522867E-2</MEAN_MOTION_DOT><MEAN_MOTION_DDOT>0</MEAN_MOTION_DDOT></tleParameters></data></segment></body></omm>

</ndm>
